[{"OBJECT_NAME":"STARLINK-3231","OBJECT_ID":"2021-115W","EPOCH":"2026-03-09T11:53:53.040192","MEAN_MOTION":15.08847702,"ECCENTRICITY":0.00013925,"INCLINATION":53.2174,"RA_OF_ASC_NODE":149.886,"ARG_OF_PERICENTER":84.1838,"MEAN_ANOMALY":275.9313,"EPHEMERIS_TYPE":0,"CLASSIFICATION_TYPE":"U","NORAD_CAT_ID":49744,"ELEMENT_SET_NO":999,"REV_AT_EPOCH":23550,"BSTAR":-0.00016926299,"MEAN_MOTION_DOT":-2.981e-5,"MEAN_MOTION_DDOT":0},{"OBJECT_NAME":"STARLINK-6085","OBJECT_ID":"2023-090Q","EPOCH":"2026-03-09T12:53:56.600160","MEAN_MOTION":15.13089153,"ECCENTRICITY":0.00193829,"INCLINATION":42.9983,"RA_OF_ASC_NODE":264.1938,"ARG_OF_PERICENTER":205.4773,"MEAN_ANOMALY":154.5119,"EPHEMERIS_TYPE":0,"CLASSIFICATION_TYPE":"U","NORAD_CAT_ID":57115,"ELEMENT_SET_NO":999,"REV_AT_EPOCH":15052,"BSTAR":0.0015301514,"MEAN_MOTION_DOT":0.00027564,"MEAN_MOTION_DDOT":0}]
